NORAD_CAT_ID,OBJECT_NAME,OBJECT_TYPE,EPOCH,MEAN_MOTION,ECCENTRICITY,INCLINATION,RA_OF_ASC_NODE,ARG_OF_PERICENTER,MEAN_ANOMALY,BSTAR,MEAN_MOTION_DOT,MEAN_MOTION_DDOT,TLE_LINE0,TLE_LINE1,TLE_LINE2,SEMIMAJOR_AXIS,PERIOD,APOGEE,PERIGEE,DECAYED
49411.0,STARLINK-3162,PAYLOAD,2021-12-31 12:00:00,15.73167605,0.0006837,53.2168,255.5776,305.6464,50.18899999999999,0.00040958,0.0005724,0.0,0 STARLINK-3162,1 49411U 21104D   21365.50001157  .00057240  00000-0  40958-3 0  9990,2 49411  53.2168 255.5776 0006837 305.6464  50.1890 15.73167605  8838,6727.988,91.535,354.452,345.25300000000016,0.0
49411.0,STARLINK-3162,PAYLOAD,2021-12-31 14:00:01,15.73168643,0.0006827,53.2166,255.165,305.4707,162.5925,0.00050802,0.0007127,0.0,0 STARLINK-3162,1 49411U 21104D   21365.58334491  .00071270  00000-0  50802-3 0  9996,2 49411  53.2166 255.1650 0006827 305.4707 162.5925 15.73168643  3699,6727.985,91.535,354.4430000000001,345.256,0.0
49411.0,STARLINK-3162,PAYLOAD,2021-12-31 22:41:27,15.7321149,0.0006927,53.2159,253.371,309.0121,51.0282,4.6242e-05,5.877e-05,0.0,0 STARLINK-3162,1 49411U 21104D   21365.94545293  .00005877  00000-0  46242-4 0  9994,2 49411  53.2159 253.3710 0006927 309.0121  51.0282 15.73211490  7825,6727.861999999999,91.533,354.38800000000015,345.06699999999995,0.0
49411.0,STARLINK-3162,PAYLOAD,2022-01-01 06:00:00,15.73180525,0.0006987,53.216,251.8662,307.9052,337.9904,-6.2941e-05,-9.459e-05,0.0,0 STARLINK-3162,1 49411U 21104D   22001.25001157 -.00009459  00000-0 -62941-4 0  9998,2 49411  53.2160 251.8662 0006987 307.9052 337.9904 15.73180525  8958,6727.951,91.534,354.517,345.115,0.0
49411.0,STARLINK-3162,PAYLOAD,2022-01-01 12:00:00,15.73232207,0.0006723,53.2167,250.6254,309.5565,313.0163,-0.0022871,-0.00311061,0.0,0 STARLINK-3162,1 49411U 21104D   22001.50001157 -.00311061  00000-0 -22871-2 0  9997,2 49411  53.2167 250.6254 0006723 309.5565 313.0163 15.73232207  8995,6727.803000000001,91.531,354.191,345.145,0.0
49411.0,STARLINK-3162,PAYLOAD,2022-01-01 14:00:01,15.73189186,0.0006732999999999,53.2166,250.2117,311.6606,63.2122,-0.0025586,-0.00345879,0.0,0 STARLINK-3162,1 49411U 21104D   22001.58335648 -.00345879  00000-0 -25586-2 0  9990,2 49411  53.2166 250.2117 0006733 311.6606  63.2122 15.73189186  3686,6727.926,91.534,354.321,345.261,0.0
49411.0,STARLINK-3162,PAYLOAD,2022-01-01 22:00:00,15.7299112,0.0007705,53.2172,248.561,326.7234,136.8595,-0.0052123,-0.00672557,0.0,0 STARLINK-3162,1 49411U 21104D   22001.91667824 -.00672557  00000-0 -52123-2 0  9994,2 49411  53.2172 248.5610 0007705 326.7234 136.8595 15.72991120  3684,6728.491,91.545,355.54,345.171,0.0
49411.0,STARLINK-3162,PAYLOAD,2022-01-02 14:00:01,15.72044842,0.0006787999999999,53.2175,245.259,314.1231,325.6785,-0.0052215,-0.00648387,0.0,0 STARLINK-3162,1 49411U 21104D   22002.58334491 -.00648387  00000-0 -52215-2 0  9995,2 49411  53.2175 245.2590 0006788 314.1231 325.6785 15.72044842  3696,6731.191,91.6,357.625,348.486,0.0
49411.0,STARLINK-3162,PAYLOAD,2022-01-02 22:00:00,15.7158316,0.0005859,53.2176,243.6128,269.5473,97.5168,-0.0053953999999999,-0.00655968,0.0,0 STARLINK-3162,1 49411U 21104D   22002.91667824 -.00655968  00000-0 -53954-2 0  9995,2 49411  53.2176 243.6128 0005859 269.5473  97.5168 15.71583160  3695,6732.509,91.627,358.3180000000001,350.42900000000014,0.0
49411.0,STARLINK-3162,PAYLOAD,2022-01-03 12:00:00,15.70773679,0.0001748,53.2172,240.7294,300.3358,128.0928,-0.005709,-0.00668447,0.0,0 STARLINK-3162,1 49411U 21104D   22003.50001157 -.00668447  00000-0 -57090-2 0  9993,2 49411  53.2172 240.7294 0001748 300.3358 128.0928 15.70773679  9305,6734.821999999999,91.675,357.86400000000015,355.509,0.0
49411.0,STARLINK-3162,PAYLOAD,2022-01-03 14:00:01,15.70656261,0.0001288,53.2172,240.3177,317.3539,222.5588,-0.0057339,-0.00667986,0.0,0 STARLINK-3162,1 49411U 21104D   22003.58334491 -.00667986  00000-0 -57339-2 0  9994,2 49411  53.2172 240.3177 0001288 317.3539 222.5588 15.70656261  3694,6735.156999999997,91.681,357.89,356.155,0.0
49411.0,STARLINK-3162,PAYLOAD,2022-01-03 22:00:00,15.70177537,0.0002838,53.2172,238.6749,302.6252,322.8743,-0.0056448,-0.00646521,0.0,0 STARLINK-3162,1 49411U 21104D   22003.91667824 -.00646521  00000-0 -56448-2 0  9992,2 49411  53.2172 238.6749 0002838 302.6252 322.8743 15.70177537  3691,6736.526,91.709,360.30300000000005,356.47900000000016,0.0
49411.0,STARLINK-3162,PAYLOAD,2022-01-04 14:00:01,15.69257617,4.78e-05,53.2174,235.3866,209.3597,225.6218,-0.006083,-0.00668182,0.0,0 STARLINK-3162,1 49411U 21104D   22004.58334491 -.00668182  00000-0 -60830-2 0  9994,2 49411  53.2174 235.3866 0000478 209.3597 225.6218 15.69257617  9475,6739.159000000002,91.763,361.346,360.701,0.0
49411.0,STARLINK-3162,PAYLOAD,2022-01-04 21:19:32,15.69467862,0.000176,53.2158,233.9071,262.8907,97.1912,-0.0028034,-0.00324051,0.0,0 STARLINK-3162,1 49411U 21104D   22004.88857147 -.00324051  00000-0 -28034-2 0  9999,2 49411  53.2158 233.9071 0001760 262.8907  97.1912 15.69467862  8447,6738.557,91.751,361.608,359.236,0.0
49411.0,STARLINK-3162,PAYLOAD,2022-01-05 14:00:01,15.67851818,0.000113,53.2174,230.4657,68.6542,256.3526,-0.0063368,-0.00657706,0.0,0 STARLINK-3162,1 49411U 21104D   22005.58334491 -.00657706  00000-0 -63368-2 0  9994,2 49411  53.2174 230.4657 0001130  68.6542 256.3526 15.67851818  3693,6743.186,91.845,365.81300000000016,364.289,0.0
49411.0,STARLINK-3162,PAYLOAD,2022-01-05 22:00:00,15.67388389,0.0001329,53.2173,228.8299,46.9219,0.3023,-0.0065145,-0.00663028,0.0,0 STARLINK-3162,1 49411U 21104D   22005.91667824 -.00663028  00000-0 -65145-2 0  9999,2 49411  53.2173 228.8299 0001329  46.9219   0.3023 15.67388389  9687,6744.516,91.873,367.277,365.484,0.0
49411.0,STARLINK-3162,PAYLOAD,2022-01-06 14:00:01,15.664535399999998,0.0001274999999999,53.2173,225.555,68.01,141.9736,-0.0067228,-0.00658961,0.0,0 STARLINK-3162,1 49411U 21104D   22006.58334491 -.00658961  00000-0 -67228-2 0  9998,2 49411  53.2173 225.5550 0001275  68.0100 141.9736 15.66453540  3694,6747.199000000001,91.927,369.924,368.203,0.0
49411.0,STARLINK-3162,PAYLOAD,2022-01-06 22:00:00,15.65987503,0.0001341,53.2175,223.9226,55.7398,234.7808,-0.0068751,-0.00661121,0.0,0 STARLINK-3162,1 49411U 21104D   22006.91667824 -.00661121  00000-0 -68751-2 0  9998,2 49411  53.2175 223.9226 0001341  55.7398 234.7808 15.65987503  3707,6748.5369999999975,91.955,371.307,369.497,0.0
49411.0,STARLINK-3162,PAYLOAD,2022-01-07 06:00:00,15.6552069,0.0001043,53.2174,222.2881,76.9368,293.5617,-0.0069953,-0.00660149,0.0,0 STARLINK-3162,1 49411U 21104D   22007.25001157 -.00660149  00000-0 -69953-2 0  9991,2 49411  53.2174 222.2881 0001043  76.9368 293.5617 15.65520690  9893,6749.879,91.982,372.448,371.04,0.0
49411.0,STARLINK-3162,PAYLOAD,2022-01-07 14:00:01,15.64953477,0.0001147,53.2169,220.6561,50.7886,39.1773,-0.0055541,-0.00521173,0.0,0 STARLINK-3162,1 49411U 21104D   22007.58334491 -.00521173  00000-0 -55541-2 0  9998,2 49411  53.2169 220.6561 0001147  50.7886  39.1773 15.64953477  3662,6751.51,92.016,374.149,372.6,0.0
49411.0,STARLINK-3162,PAYLOAD,2022-01-07 22:00:00,15.64587182,0.0001496999999999,53.2174,219.0255,49.9273,118.8433,-0.0072501,-0.00659207,0.0,0 STARLINK-3162,1 49411U 21104D   22007.91667824 -.00659207  00000-0 -72501-2 0  9999,2 49411  53.2174 219.0255 0001497  49.9273 118.8433 15.64587182  3695,6752.563,92.037,375.439,373.417,0.0
49411.0,STARLINK-3162,PAYLOAD,2022-01-08 14:00:01,15.63653447,0.0001182,53.2174,215.7644,62.7529,262.0491,-0.0075013,-0.00657264,0.0,0 STARLINK-3162,1 49411U 21104D   22008.58334491 -.00657264  00000-0 -75013-2 0  9996,2 49411  53.2174 215.7644 0001182  62.7529 262.0491 15.63653447 10105,6755.251,92.092,377.915,376.318,0.0
49411.0,STARLINK-3162,PAYLOAD,2022-01-08 22:00:00,15.63188905,0.0001325,53.2174,214.1388,48.9968,352.9775,-0.0076952,-0.00661641,0.0,0 STARLINK-3162,1 49411U 21104D   22008.91667824 -.00661641  00000-0 -76952-2 0  9999,2 49411  53.2174 214.1388 0001325  48.9968 352.9775 15.63188905  3686,6756.589,92.119,379.35,377.559,0.0
49411.0,STARLINK-3162,PAYLOAD,2022-01-09 14:00:01,15.62254067,0.0001353,53.2177,210.8846,63.3334,131.3089,-0.007928,-0.00657395,0.0,0 STARLINK-3162,1 49411U 21104D   22009.58334491 -.00657395  00000-0 -79280-2 0  9992,2 49411  53.2177 210.8846 0001353  63.3334 131.3089 15.62254067 10261,6759.285,92.175,382.064,380.235,0.0
49411.0,STARLINK-3162,PAYLOAD,2022-01-09 22:00:00,15.61787916,0.0001421,53.2177,209.2621,53.5986,216.5348,-0.0080962,-0.00659087,0.0,0 STARLINK-3162,1 49411U 21104D   22009.91667824 -.00659087  00000-0 -80962-2 0  9997,2 49411  53.2177 209.2621 0001421  53.5986 216.5348 15.61787916  3689,6760.629,92.202,383.455,381.534,0.0
49411.0,STARLINK-3162,PAYLOAD,2022-01-10 14:00:01,15.60854156,0.0001314,53.2176,206.0148,48.6861,10.7512,-0.0083751,-0.00657582,0.0,0 STARLINK-3162,1 49411U 21104D   22010.58334491 -.00657582  00000-0 -83751-2 0  9990,2 49411  53.2176 206.0148 0001314  48.6861  10.7512 15.60854156 10411,6763.326,92.257,386.079,384.302,0.0
49411.0,STARLINK-3162,PAYLOAD,2022-01-10 22:00:00,15.60386474,0.0001415,53.2174,204.3957,49.8251,83.4218,-0.0085041,-0.00655901,0.0,0 STARLINK-3162,1 49411U 21104D   22010.91667824 -.00655901  00000-0 -85041-2 0  9993,2 49411  53.2174 204.3957 0001415  49.8251  83.4218 15.60386474  3691,6764.677,92.285,387.499,385.585,0.0
49411.0,STARLINK-3162,PAYLOAD,2022-01-11 14:00:01,15.59455099,0.0001303,53.2175,201.1551,61.3553,217.8306,-0.0088441,-0.00657942,0.0,0 STARLINK-3162,1 49411U 21104D   22011.58334491 -.00657942  00000-0 -88441-2 0  9992,2 49411  53.2175 201.1551 0001303  61.3553 217.8306 15.59455099 10571,6767.37,92.34,390.117,388.353,0.0
49411.0,STARLINK-3162,PAYLOAD,2022-01-11 22:00:00,15.58988246,0.0001344,53.2176,199.5394,49.4338,301.8797,-0.0090122,-0.00658545,0.0,0 STARLINK-3162,1 49411U 21104D   22011.91667824 -.00658545  00000-0 -90122-2 0  9997,2 49411  53.2176 199.5394 0001344  49.4338 301.8797 15.58988246  3675,6768.721,92.368,391.496,389.676,0.0
